{"type": "FeatureCollection", "features": [ {"type": "Feature", "properties": {"norad_id": 66757, "name": "TRANSPORTER-15CV", "group": "last-30-days", "lat": -69.22416046224116, "lon": -128.43283539206334, "alt_km": 518.840840751689, "timestamp": "2025-12-26T03:50:10.807260+00:00", "meta": {"OBJECT_NAME": "TRANSPORTER-15CV", "OBJECT_ID": "2025-276CV", "EPOCH": "2025-12-25T14:04:56.087328", "MEAN_MOTION": 15.18206679, "ECCENTRICITY": 0.0001768, "INCLINATION": 97.4414, "RA_OF_ASC_NODE": 71.1557, "ARG_OF_PERICENTER": 131.9957, "MEAN_ANOMALY": 228.1428, "EPHEMERIS_TYPE": 0, "CLASSIFICATION_TYPE": "U", "NORAD_CAT_ID": 66757, "ELEMENT_SET_NO": 999, "REV_AT_EPOCH": 407, "BSTAR": 0.0046236, "MEAN_MOTION_DOT": 0.0009567, "MEAN_MOTION_DDOT": 0}, "tle": {"line1": "1 66757U 25276CV  25359.58676027  .00095670  00000+0  46236-2 0  9997", "line2": "2 66757  97.4414  71.1557 0001768 131.9957 228.1428 15.18206679  4078"}}, "geometry": {"type": "Point", "coordinates": [-128.43283539206334, -69.22416046224116]}}, {"type": "Feature", "properties": {"norad_id": 66758, "name": "TRANSPORTER-15CW", "group": "last-30-days", "lat": -70.36043521645797, "lon": -129.76698077811452, "alt_km": 519.3241026949026, "timestamp": "2025-12-26T03:50:10.807270+00:00", "meta": {"OBJECT_NAME": "TRANSPORTER-15CW", "OBJECT_ID": "2025-276CW", "EPOCH": "2025-12-25T18:49:16.576896", "MEAN_MOTION": 15.18113988, "ECCENTRICITY": 0.0001491, "INCLINATION": 97.4386, "RA_OF_ASC_NODE": 71.3401, "ARG_OF_PERICENTER": 133.8806, "MEAN_ANOMALY": 226.2551, "EPHEMERIS_TYPE": 0, "CLASSIFICATION_TYPE": "U", "NORAD_CAT_ID": 66758, "ELEMENT_SET_NO": 999, "REV_AT_EPOCH": 410, "BSTAR": 0.00048646, "MEAN_MOTION_DOT": 9.862e-05, "MEAN_MOTION_DDOT": 0}, "tle": {"line1": "1 66758U 25276CW  25359.78421964  .00009862  00000+0  48646-3 0  9994", "line2": "2 66758  97.4386  71.3401 0001491 133.8806 226.2551 15.18113988  4104"}}, "geometry": {"type": "Point", "coordinates": [-129.76698077811452, -70.36043521645797]}}, {"type": "Feature", "properties": {"norad_id": 66759, "name": "TRANSPORTER-15CX", "group": "last-30-days", "lat": -79.44601793511043, "lon": -152.8236425019263, "alt_km": 518.7755983645739, "timestamp": "2025-12-26T03:50:10.807280+00:00", "meta": {"OBJECT_NAME": "TRANSPORTER-15CX", "OBJECT_ID": "2025-276CX", "EPOCH": "2025-12-25T18:46:32.352096", "MEAN_MOTION": 15.18333524, "ECCENTRICITY": 0.0003411, "INCLINATION": 97.44, "RA_OF_ASC_NODE": 71.3435, "ARG_OF_PERICENTER": 154.8576, "MEAN_ANOMALY": 205.2825, "EPHEMERIS_TYPE": 0, "CLASSIFICATION_TYPE": "U", "NORAD_CAT_ID": 66759, "ELEMENT_SET_NO": 999, "REV_AT_EPOCH": 410, "BSTAR": 0.0045873, "MEAN_MOTION_DOT": 0.00095267, "MEAN_MOTION_DDOT": 0}, "tle": {"line1": "1 66759U 25276CX  25359.78231889  .00095267  00000+0  45873-2 0  9992", "line2": "2 66759  97.4400  71.3435 0003411 154.8576 205.2825 15.18333524  4101"}}, "geometry": {"type": "Point", "coordinates": [-152.8236425019263, -79.44601793511043]}}, {"type": "Feature", "properties": {"norad_id": 66760, "name": "TRANSPORTER-15CY", "group": "last-30-days", "lat": -80.530035777393, "lon": -159.85093734328598, "alt_km": 519.6409910053626, "timestamp": "2025-12-26T03:50:10.807290+00:00", "meta": {"OBJECT_NAME": "TRANSPORTER-15CY", "OBJECT_ID": "2025-276CY", "EPOCH": "2025-12-25T17:11:08.492064", "MEAN_MOTION": 15.18222168, "ECCENTRICITY": 0.0001753, "INCLINATION": 97.4392, "RA_OF_ASC_NODE": 71.2801, "ARG_OF_PERICENTER": 112.2879, "MEAN_ANOMALY": 247.8541, "EPHEMERIS_TYPE": 0, "CLASSIFICATION_TYPE": "U", "NORAD_CAT_ID": 66760, "ELEMENT_SET_NO": 999, "REV_AT_EPOCH": 409, "BSTAR": 0.00032414, "MEAN_MOTION_DOT": 6.567e-05, "MEAN_MOTION_DDOT": 0}, "tle": {"line1": "1 66760U 25276CY  25359.71607051  .00006567  00000+0  32414-3 0  9998", "line2": "2 66760  97.4392  71.2801 0001753 112.2879 247.8541 15.18222168  4096"}}, "geometry": {"type": "Point", "coordinates": [-159.85093734328598, -80.530035777393]}}, {"type": "Feature", "properties": {"norad_id": 66761, "name": "TRANSPORTER-15CZ", "group": "last-30-days", "lat": -76.37903970742849, "lon": 104.35421643286904, "alt_km": 518.7159601538624, "timestamp": "2025-12-26T03:50:10.807300+00:00", "meta": {"OBJECT_NAME": "TRANSPORTER-15CZ", "OBJECT_ID": "2025-276CZ", "EPOCH": "2025-12-25T18:41:35.331360", "MEAN_MOTION": 15.18537851, "ECCENTRICITY": 0.0001742, "INCLINATION": 97.439, "RA_OF_ASC_NODE": 71.3487, "ARG_OF_PERICENTER": 121.8213, "MEAN_ANOMALY": 238.3191, "EPHEMERIS_TYPE": 0, "CLASSIFICATION_TYPE": "U", "NORAD_CAT_ID": 66761, "ELEMENT_SET_NO": 999, "REV_AT_EPOCH": 410, "BSTAR": 0.00052315, "MEAN_MOTION_DOT": 0.00010743, "MEAN_MOTION_DDOT": 0}, "tle": {"line1": "1 66761U 25276CZ  25359.77888115  .00010743  00000+0  52315-3 0  9990", "line2": "2 66761  97.4390  71.3487 0001742 121.8213 238.3191 15.18537851  4108"}}, "geometry": {"type": "Point", "coordinates": [104.35421643286904, -76.37903970742849]}}, {"type": "Feature", "properties": {"norad_id": 66762, "name": "HYDROGNSS-1", "group": "last-30-days", "lat": -1.1986499027571784, "lon": -108.47197262901167, "alt_km": 516.7526785410255, "timestamp": "2025-12-26T03:50:10.807310+00:00", "meta": {"OBJECT_NAME": "HYDROGNSS-1", "OBJECT_ID": "2025-276DA", "EPOCH": "2025-12-25T19:07:37.222176", "MEAN_MOTION": 15.17329729, "ECCENTRICITY": 9.71e-05, "INCLINATION": 97.4403, "RA_OF_ASC_NODE": 71.3283, "ARG_OF_PERICENTER": 237.5694, "MEAN_ANOMALY": 122.5445, "EPHEMERIS_TYPE": 0, "CLASSIFICATION_TYPE": "U", "NORAD_CAT_ID": 66762, "ELEMENT_SET_NO": 999, "REV_AT_EPOCH": 410, "BSTAR": 0.00045831, "MEAN_MOTION_DOT": 9.08e-05, "MEAN_MOTION_DDOT": 0}, "tle": {"line1": "1 66762U 25276DA  25359.79695859  .00009080  00000+0  45831-3 0  9991", "line2": "2 66762  97.4403  71.3283 0000971 237.5694 122.5445 15.17329729  4107"}}, "geometry": {"type": "Point", "coordinates": [-108.47197262901167, -1.1986499027571784]}}, {"type": "Feature", "properties": {"norad_id": 66763, "name": "HYDROGNSS-2", "group": "last-30-days", "lat": -13.613464685543182, "lon": -110.11950435112102, "alt_km": 517.2131069772058, "timestamp": "2025-12-26T03:50:10.807342+00:00", "meta": {"OBJECT_NAME": "HYDROGNSS-2", "OBJECT_ID": "2025-276DB", "EPOCH": "2025-12-25T19:04:21.419904", "MEAN_MOTION": 15.17449308, "ECCENTRICITY": 0.000163, "INCLINATION": 97.4407, "RA_OF_ASC_NODE": 71.3355, "ARG_OF_PERICENTER": 221.9246, "MEAN_ANOMALY": 138.1863, "EPHEMERIS_TYPE": 0, "CLASSIFICATION_TYPE": "U", "NORAD_CAT_ID": 66763, "ELEMENT_SET_NO": 999, "REV_AT_EPOCH": 410, "BSTAR": 0.00020092, "MEAN_MOTION_DOT": 3.954e-05, "MEAN_MOTION_DDOT": 0}, "tle": {"line1": "1 66763U 25276DB  25359.79469236  .00003954  00000+0  20092-3 0  9996", "line2": "2 66763  97.4407  71.3355 0001630 221.9246 138.1863 15.17449308  4108"}}, "geometry": {"type": "Point", "coordinates": [-110.11950435112102, -13.613464685543182]}}, {"type": "Feature", "properties": {"norad_id": 66764, "name": "TRANSPORTER-15DC", "group": "last-30-days", "lat": -40.34703864315998, "lon": -114.67417500860142, "alt_km": 518.0461142660843, "timestamp": "2025-12-26T03:50:10.807357+00:00", "meta": {"OBJECT_NAME": "TRANSPORTER-15DC", "OBJECT_ID": "2025-276DC", "EPOCH": "2025-12-25T18:57:19.530432", "MEAN_MOTION": 15.17717948, "ECCENTRICITY": 0.0002332, "INCLINATION": 97.4401, "RA_OF_ASC_NODE": 71.3357, "ARG_OF_PERICENTER": 183.8557, "MEAN_ANOMALY": 176.2659, "EPHEMERIS_TYPE": 0, "CLASSIFICATION_TYPE": "U", "NORAD_CAT_ID": 66764, "ELEMENT_SET_NO": 999, "REV_AT_EPOCH": 410, "BSTAR": 0.00046898, "MEAN_MOTION_DOT": 9.397e-05, "MEAN_MOTION_DDOT": 0}, "tle": {"line1": "1 66764U 25276DC  25359.78980938  .00009397  00000+0  46898-3 0  9992", "line2": "2 66764  97.4401  71.3357 0002332 183.8557 176.2659 15.17717948  4100"}}, "geometry": {"type": "Point", "coordinates": [-114.67417500860142, -40.34703864315998]}}, {"type": "Feature", "properties": {"norad_id": 66765, "name": "TRANSPORTER-15DD", "group": "last-30-days", "lat": -56.48292611006532, "lon": 83.12227552212632, "alt_km": 517.8864569139268, "timestamp": "2025-12-26T03:50:10.807370+00:00", "meta": {"OBJECT_NAME": "TRANSPORTER-15DD", "OBJECT_ID": "2025-276DD", "EPOCH": "2025-12-25T18:36:02.960064", "MEAN_MOTION": 15.18804437, "ECCENTRICITY": 0.0001988, "INCLINATION": 97.4414, "RA_OF_ASC_NODE": 71.3618, "ARG_OF_PERICENTER": 115.8266, "MEAN_ANOMALY": 244.3174, "EPHEMERIS_TYPE": 0, "CLASSIFICATION_TYPE": "U", "NORAD_CAT_ID": 66765, "ELEMENT_SET_NO": 999, "REV_AT_EPOCH": 410, "BSTAR": 0.00063955, "MEAN_MOTION_DOT": 0.00013254, "MEAN_MOTION_DDOT": 0}, "tle": {"line1": "1 66765U 25276DD  25359.77503426  .00013254  00000+0  63955-3 0  9995", "line2": "2 66765  97.4414  71.3618 0001988 115.8266 244.3174 15.18804437  4103"}}, "geometry": {"type": "Point", "coordinates": [83.12227552212632, -56.48292611006532]}}, {"type": "Feature", "properties": {"norad_id": 66766, "name": "TRANSPORTER-15DE", "group": "last-30-days", "lat": -74.35602346675584, "lon": 99.51162436484874, "alt_km": 519.1404532338165, "timestamp": "2025-12-26T03:50:10.807381+00:00", "meta": {"OBJECT_NAME": "TRANSPORTER-15DE", "OBJECT_ID": "2025-276DE", "EPOCH": "2025-12-25T17:06:02.140992", "MEAN_MOTION": 15.18446815, "ECCENTRICITY": 0.0001979, "INCLINATION": 97.4356, "RA_OF_ASC_NODE": 71.2726, "ARG_OF_PERICENTER": 86.5212, "MEAN_ANOMALY": 273.6249, "EPHEMERIS_TYPE": 0, "CLASSIFICATION_TYPE": "U", "NORAD_CAT_ID": 66766, "ELEMENT_SET_NO": 999, "REV_AT_EPOCH": 409, "BSTAR": 0.00035741, "MEAN_MOTION_DOT": 7.296e-05, "MEAN_MOTION_DDOT": 0}, "tle": {"line1": "1 66766U 25276DE  25359.71252478  .00007296  00000+0  35741-3 0  9999", "line2": "2 66766  97.4356  71.2726 0001979  86.5212 273.6249 15.18446815  4091"}}, "geometry": {"type": "Point", "coordinates": [99.51162436484874, -74.35602346675584]}}]}